[{"OBJECT_NAME":"VIZARD-METEO (RS38S)","OBJECT_ID":"2023-091Z","EPOCH":"2026-03-09T23:01:09.168960","MEAN_MOTION":15.32764799,"ECCENTRICITY":0.00087615,"INCLINATION":97.5192,"RA_OF_ASC_NODE":136.6522,"ARG_OF_PERICENTER":71.7666,"MEAN_ANOMALY":288.4529,"EPHEMERIS_TYPE":0,"CLASSIFICATION_TYPE":"U","NORAD_CAT_ID":57189,"ELEMENT_SET_NO":999,"REV_AT_EPOCH":14947,"BSTAR":0.00066106249,"MEAN_MOTION_DOT":0.00020895,"MEAN_MOTION_DDOT":0},{"OBJECT_NAME":"STARLINK-32120","OBJECT_ID":"2024-131L","EPOCH":"2026-03-09T22:48:57.502656","MEAN_MOTION":15.30694889,"ECCENTRICITY":0.00016447,"INCLINATION":53.1604,"RA_OF_ASC_NODE":51.564,"ARG_OF_PERICENTER":95.7692,"MEAN_ANOMALY":264.3496,"EPHEMERIS_TYPE":0,"CLASSIFICATION_TYPE":"U","NORAD_CAT_ID":60265,"ELEMENT_SET_NO":999,"REV_AT_EPOCH":9180,"BSTAR":0.00074487835,"MEAN_MOTION_DOT":0.00022108,"MEAN_MOTION_DDOT":0}]
